start=new Date('2021-12-24T00:00:00.000Z').valueOf();
sats=[{"OBJECT_NAME":"STARLINK-1327","BSTAR":"-0.00006290400000","CENTER_NAME":"EARTH","MEAN_MOTION_DDOT":"0.0000000000000","NORAD_CAT_ID":"45555","RCS_SIZE":"LARGE","APOAPSIS":"548.869","TLE_LINE1":"1 45555U 20025AA  21357.87651100 -.00001219  00000-0 -62904-4 0  9999","ELEMENT_SET_NO":"999","PERIOD":"95.592","EPHEMERIS_TYPE":"0","TIME_SYSTEM":"UTC","REV_AT_EPOCH":"9373","LAUNCH_DATE":"2020-04-22","GP_ID":"192322388","OBJECT_ID":"2020-025AA","OBJECT_TYPE":"PAYLOAD","PERIAPSIS":"545.544","INCLINATION":"53.0522","MEAN_ELEMENT_THEORY":"SGP4","MEAN_MOTION":"15.06402345","FILE":"3249421","ARG_OF_PERICENTER":"95.2337","RA_OF_ASC_NODE":"145.6456","REF_FRAME":"TEME","SEMIMAJOR_AXIS":"6925.341","MEAN_ANOMALY":"264.8925","COUNTRY_CODE":"US","EPOCH":"2021-12-23T21:02:10.550400","TLE_LINE2":"2 45555  53.0522 145.6456 0002401  95.2337 264.8925 15.06402345 93738","DECAY_DATE":null,"CLASSIFICATION_TYPE":"U","ECCENTRICITY":"0.00024010","MEAN_MOTION_DOT":"-0.00001219","SITE":"AFETR"},{"GP_ID":"192322633","OBJECT_TYPE":"PAYLOAD","OBJECT_ID":"2020-025AB","LAUNCH_DATE":"2020-04-22","INCLINATION":"53.0543","MEAN_ELEMENT_THEORY":"SGP4","PERIAPSIS":"545.661","ELEMENT_SET_NO":"999","TIME_SYSTEM":"UTC","REV_AT_EPOCH":"9373","PERIOD":"95.592","EPHEMERIS_TYPE":"0","MEAN_MOTION_DDOT":"0.0000000000000","NORAD_CAT_ID":"45556","CENTER_NAME":"EARTH","TLE_LINE1":"1 45556U 20025AB  21357.85071291 -.00000874  00000-0 -39762-4 0  9997","APOAPSIS":"548.759","RCS_SIZE":"LARGE","BSTAR":"-0.00003976200000","OBJECT_NAME":"STARLINK-1334","SITE":"AFETR","TLE_LINE2":"2 45556  53.0543 145.7666 0002237  95.6461 264.4783 15.06401194 93734","ECCENTRICITY":"0.00022370","MEAN_MOTION_DOT":"-0.00000874","DECAY_DATE":null,"CLASSIFICATION_TYPE":"U","COUNTRY_CODE":"US","EPOCH":"2021-12-23T20:25:01.595424","ARG_OF_PERICENTER":"95.6461","MEAN_MOTION":"15.06401194","FILE":"3249421","SEMIMAJOR_AXIS":"6925.345","MEAN_ANOMALY":"264.4783","REF_FRAME":"TEME","RA_OF_ASC_NODE":"145.7666"},{"ELEMENT_SET_NO":"999","REV_AT_EPOCH":"9373","TIME_SYSTEM":"UTC","EPHEMERIS_TYPE":"0","PERIOD":"95.592","OBJECT_ID":"2020-025AC","OBJECT_TYPE":"PAYLOAD","GP_ID":"192323387","LAUNCH_DATE":"2020-04-22","INCLINATION":"53.0519","MEAN_ELEMENT_THEORY":"SGP4","PERIAPSIS":"545.698","BSTAR":"0.00006784800000","OBJECT_NAME":"STARLINK-1336","NORAD_CAT_ID":"45557","MEAN_MOTION_DDOT":"0.0000000000000","CENTER_NAME":"EARTH","TLE_LINE1":"1 45557U 20025AC  21357.85808833  .00000729  00000-0  67848-4 0  9991","APOAPSIS":"548.677","RCS_SIZE":"LARGE","TLE_LINE2":"2 45557  53.0519 145.7250 0002151  94.2745 265.8490 15.06408587 93735","MEAN_MOTION_DOT":"0.00000729","ECCENTRICITY":"0.00021510","CLASSIFICATION_TYPE":"U","DECAY_DATE":null,"SITE":"AFETR","ARG_OF_PERICENTER":"94.2745","FILE":"3249421","MEAN_MOTION":"15.06408587","MEAN_ANOMALY":"265.8490","SEMIMAJOR_AXIS":"6925.322","REF_FRAME":"TEME","RA_OF_ASC_NODE":"145.7250","COUNTRY_CODE":"US","EPOCH":"2021-12-23T20:35:38.831712"},{"REF_FRAME":"TEME","RA_OF_ASC_NODE":"145.8792","MEAN_ANOMALY":"260.9355","SEMIMAJOR_AXIS":"6925.346","FILE":"3249421","MEAN_MOTION":"15.06400811","ARG_OF_PERICENTER":"99.1904","EPOCH":"2021-12-23T19:47:52.385568","COUNTRY_CODE":"US","CLASSIFICATION_TYPE":"U","DECAY_DATE":null,"MEAN_MOTION_DOT":"-0.00000981","ECCENTRICITY":"0.00023880","TLE_LINE2":"2 45558  53.0541 145.8792 0002388  99.1904 260.9355 15.06400811 93723","SITE":"AFETR","OBJECT_NAME":"STARLINK-1342","BSTAR":"-0.00004692800000","RCS_SIZE":"LARGE","APOAPSIS":"548.865","TLE_LINE1":"1 45558U 20025AD  21357.82491187 -.00000981  00000-0 -46928-4 0  9997","CENTER_NAME":"EARTH","NORAD_CAT_ID":"45558","MEAN_MOTION_DDOT":"0.0000000000000","EPHEMERIS_TYPE":"0","PERIOD":"95.592","REV_AT_EPOCH":"9372","TIME_SYSTEM":"UTC","ELEMENT_SET_NO":"999","PERIAPSIS":"545.557","INCLINATION":"53.0541","MEAN_ELEMENT_THEORY":"SGP4","LAUNCH_DATE":"2020-04-22","OBJECT_ID":"2020-025AD","OBJECT_TYPE":"PAYLOAD","GP_ID":"192321637"},{"MEAN_MOTION":"15.06380456","FILE":"3249421","ARG_OF_PERICENTER":"90.4944","RA_OF_ASC_NODE":"145.7041","REF_FRAME":"TEME","MEAN_ANOMALY":"269.6270","SEMIMAJOR_AXIS":"6925.408","COUNTRY_CODE":"US","EPOCH":"2021-12-23T20:40:57.365184","TLE_LINE2":"2 45559  53.0526 145.7041 0001966  90.4944 269.6270 15.06380456 93737","DECAY_DATE":null,"CLASSIFICATION_TYPE":"U","ECCENTRICITY":"0.00019660","MEAN_MOTION_DOT":"-0.00004448","SITE":"AFETR","OBJECT_NAME":"STARLINK-1344","BSTAR":"-0.00028001000000","CENTER_NAME":"EARTH","MEAN_MOTION_DDOT":"0.0000000000000","NORAD_CAT_ID":"45559","RCS_SIZE":"LARGE","APOAPSIS":"548.635","TLE_LINE1":"1 45559U 20025AE  21357.86177506 -.00004448  00000-0 -28001-3 0  9991","ELEMENT_SET_NO":"999","PERIOD":"95.593","EPHEMERIS_TYPE":"0","TIME_SYSTEM":"UTC","REV_AT_EPOCH":"9373","LAUNCH_DATE":"2020-04-22","GP_ID":"192321888","OBJECT_TYPE":"PAYLOAD","OBJECT_ID":"2020-025AE","PERIAPSIS":"545.912","INCLINATION":"53.0526","MEAN_ELEMENT_THEORY":"SGP4"},{"LAUNCH_DATE":"2020-04-22","GP_ID":"192323134","OBJECT_TYPE":"PAYLOAD","OBJECT_ID":"2020-025AF","PERIAPSIS":"545.915","INCLINATION":"53.0544","MEAN_ELEMENT_THEORY":"SGP4","ELEMENT_SET_NO":"999","PERIOD":"95.593","EPHEMERIS_TYPE":"0","TIME_SYSTEM":"UTC","REV_AT_EPOCH":"9385","CENTER_NAME":"EARTH","MEAN_MOTION_DDOT":"0.0000000000000","NORAD_CAT_ID":"45560","APOAPSIS":"548.564","RCS_SIZE":"LARGE","TLE_LINE1":"1 45560U 20025AF  21357.71526060 -.00000240  00000-0  27772-5 0  9991","OBJECT_NAME":"STARLINK-1346","BSTAR":"0.00000277720000","SITE":"AFETR","TLE_LINE2":"2 45560  53.0544 136.3712 0001912  93.0719 267.0489 15.06391515 93855","DECAY_DATE":null,"CLASSIFICATION_TYPE":"U","ECCENTRICITY":"0.00019120","MEAN_MOTION_DOT":"-0.00000240","COUNTRY_CODE":"US","EPOCH":"2021-12-23T17:09:58.515840","MEAN_MOTION":"15.06391515","FILE":"3249421","ARG_OF_PERICENTER":"93.0719","REF_FRAME":"TEME","RA_OF_ASC_NODE":"136.3712","SEMIMAJOR_AXIS":"6925.375","MEAN_ANOMALY":"267.0489"},{"MEAN_MOTION_DDOT":"0.0000000000000","NORAD_CAT_ID":"45561","CENTER_NAME":"EARTH","TLE_LINE1":"1 45561U 20025AG  21357.56050974  .00010804  00000-0  70972-3 0  9995","APOAPSIS":"543.232","RCS_SIZE":"LARGE","BSTAR":"0.00070972000000","OBJECT_NAME":"STARLINK-1348","GP_ID":"192322887","OBJECT_TYPE":"PAYLOAD","OBJECT_ID":"2020-025AG","LAUNCH_DATE":"2020-04-22","INCLINATION":"53.0589","MEAN_ELEMENT_THEORY":"SGP4","PERIAPSIS":"540.736","ELEMENT_SET_NO":"999","TIME_SYSTEM":"UTC","REV_AT_EPOCH":"9489","PERIOD":"95.484","EPHEMERIS_TYPE":"0","COUNTRY_CODE":"US","EPOCH":"2021-12-23T13:27:08.041536","ARG_OF_PERICENTER":"92.8495","MEAN_MOTION":"15.08107924","FILE":"3249421","MEAN_ANOMALY":"267.2701","SEMIMAJOR_AXIS":"6920.119","REF_FRAME":"TEME","RA_OF_ASC_NODE":"61.2415","SITE":"AFETR","TLE_LINE2":"2 45561  53.0589  61.2415 0001803  92.8495 267.2701 15.08107924 94893","ECCENTRICITY":"0.00018030","MEAN_MOTION_DOT":"0.00010804","DECAY_DATE":null,"CLASSIFICATION_TYPE":"U"},{"SITE":"AFETR","TLE_LINE2":"2 45562  53.0526 145.9717 0002055 100.7608 259.3613 15.06407242 93724","ECCENTRICITY":"0.00020550","MEAN_MOTION_DOT":"0.00000055","DECAY_DATE":null,"CLASSIFICATION_TYPE":"U","COUNTRY_CODE":"US","EPOCH":"2021-12-23T19:16:01.621056","ARG_OF_PERICENTER":"100.7608","MEAN_MOTION":"15.06407242","FILE":"3249421","MEAN_ANOMALY":"259.3613","SEMIMAJOR_AXIS":"6925.326","REF_FRAME":"TEME","RA_OF_ASC_NODE":"145.9717","GP_ID":"192322138","OBJECT_TYPE":"PAYLOAD","OBJECT_ID":"2020-025AH","LAUNCH_DATE":"2020-04-22","INCLINATION":"53.0526","MEAN_ELEMENT_THEORY":"SGP4","PERIAPSIS":"545.768","ELEMENT_SET_NO":"999","TIME_SYSTEM":"UTC","REV_AT_EPOCH":"9372","PERIOD":"95.592","EPHEMERIS_TYPE":"0","MEAN_MOTION_DDOT":"0.0000000000000","NORAD_CAT_ID":"45562","CENTER_NAME":"EARTH","TLE_LINE1":"1 45562U 20025AH  21357.80279654  .00000055  00000-0  22578-4 0  9998","APOAPSIS":"548.615","RCS_SIZE":"LARGE","BSTAR":"0.00002257800000","OBJECT_NAME":"STARLINK-1354"},{"SITE":"AFETR","DECAY_DATE":null,"CLASSIFICATION_TYPE":"U","ECCENTRICITY":"0.00021150","MEAN_MOTION_DOT":"0.00001036","TLE_LINE2":"2 45563  53.0545 146.2120 0002115  98.8140 261.3088 15.06407215 93711","EPOCH":"2021-12-23T18:01:42.823776","COUNTRY_CODE":"US","RA_OF_ASC_NODE":"146.2120","REF_FRAME":"TEME","MEAN_ANOMALY":"261.3088","SEMIMAJOR_AXIS":"6925.326","MEAN_MOTION":"15.06407215","FILE":"3249421","ARG_OF_PERICENTER":"98.8140","PERIAPSIS":"545.727","INCLINATION":"53.0545","MEAN_ELEMENT_THEORY":"SGP4","LAUNCH_DATE":"2020-04-22","GP_ID":"192322389","OBJECT_TYPE":"PAYLOAD","OBJECT_ID":"2020-025AJ","PERIOD":"95.592","EPHEMERIS_TYPE":"0","TIME_SYSTEM":"UTC","REV_AT_EPOCH":"9371","ELEMENT_SET_NO":"999","RCS_SIZE":"LARGE","APOAPSIS":"548.656","TLE_LINE1":"1 45563U 20025AJ  21357.75119009  .00001036  00000-0  88469-4 0  9991","CENTER_NAME":"EARTH","MEAN_MOTION_DDOT":"0.0000000000000","NORAD_CAT_ID":"45563","OBJECT_NAME":"STARLINK-1355","BSTAR":"0.00008846900000"},{"SITE":"AFETR","TLE_LINE2":"2 45564  53.0540 145.6179 0002112  95.4265 264.6965 15.06403472 93735","CLASSIFICATION_TYPE":"U","DECAY_DATE":null,"MEAN_MOTION_DOT":"0.00000341","ECCENTRICITY":"0.00021120","COUNTRY_CODE":"US","EPOCH":"2021-12-23T21:07:29.018208","FILE":"3249421","MEAN_MOTION":"15.06403472","ARG_OF_PERICENTER":"95.4265","REF_FRAME":"TEME","RA_OF_ASC_NODE":"145.6179","MEAN_ANOMALY":"264.6965","SEMIMAJOR_AXIS":"6925.338","LAUNCH_DATE":"2020-04-22","OBJECT_ID":"2020-025AK","OBJECT_TYPE":"PAYLOAD","GP_ID":"192322634","PERIAPSIS":"545.740","INCLINATION":"53.0540","MEAN_ELEMENT_THEORY":"SGP4","ELEMENT_SET_NO":"999","EPHEMERIS_TYPE":"0","PERIOD":"95.592","REV_AT_EPOCH":"9373","TIME_SYSTEM":"UTC","CENTER_NAME":"EARTH","NORAD_CAT_ID":"45564","MEAN_MOTION_DDOT":"0.0000000000000","APOAPSIS":"548.666","RCS_SIZE":"LARGE","TLE_LINE1":"1 45564U 20025AK  21357.88019697  .00000341  00000-0  41797-4 0  9999","OBJECT_NAME":"STARLINK-1356","BSTAR":"0.00004179700000"}];
